NORAD_CAT_ID,OBJECT_NAME,OBJECT_TYPE,EPOCH,MEAN_MOTION,ECCENTRICITY,INCLINATION,RA_OF_ASC_NODE,ARG_OF_PERICENTER,MEAN_ANOMALY,BSTAR,MEAN_MOTION_DOT,MEAN_MOTION_DDOT,TLE_LINE0,TLE_LINE1,TLE_LINE2,SEMIMAJOR_AXIS,PERIOD,APOGEE,PERIGEE,DECAYED
53966.0,STARLINK-4635,PAYLOAD,2024-04-13 09:14:10,15.08848316,0.0001417,53.2158,105.5428,101.4877,258.6274,5.6964e-05,6.19e-06,0.0,0 STARLINK-4635,1 53966U 22125C   24104.38484362  .00000619  00000-0  56964-4 0  9990,2 53966  53.2158 105.5428 0001417 101.4877 258.6274 15.08848316 84427,6917.855,95.437,540.7,538.74,0.0
53966.0,STARLINK-4635,PAYLOAD,2024-04-14 04:18:48,15.08841682,0.0001642,53.2173,101.9695,85.8246,274.2934,6.7072e-05,7.8e-06,0.0,0 STARLINK-4635,1 53966U 22125C   24105.17972786  .00000780  00000-0  67072-4 0  9991,2 53966  53.2173 101.9695 0001642  85.8246 274.2934 15.08841682 84544,6917.875,95.437,540.876,538.604,0.0
53966.0,STARLINK-4635,PAYLOAD,2024-04-14 09:04:57,15.08844525,0.0001652,53.2173,101.0767,83.5765,276.5415,8.3991e-05,1.049e-05,0.0,0 STARLINK-4635,1 53966U 22125C   24105.37844529  .00001049  00000-0  83991-4 0  9993,2 53966  53.2173 101.0767 0001652  83.5765 276.5415 15.08844525 84501,6917.867,95.437,540.874,538.589,0.0
53966.0,STARLINK-4635,PAYLOAD,2024-04-15 08:55:44,15.08848787,0.0001697,53.2177,96.6147,83.2878,276.8308,0.00010651,1.408e-05,0.0,0 STARLINK-4635,1 53966U 22125C   24106.37204034  .00001408  00000-0  10651-3 0  9996,2 53966  53.2177  96.6147 0001697  83.2878 276.8308 15.08848787 84729,6917.854,95.437,540.892,538.545,0.0
53966.0,STARLINK-4635,PAYLOAD,2024-04-16 04:00:22,15.08842683,0.0001567,53.2174,93.0489,89.1272,270.9899,1.5032e-05,-4.9e-07,0.0,0 STARLINK-4635,1 53966U 22125C   24107.16692685 -.00000049  00000-0  15032-4 0  9997,2 53966  53.2174  93.0489 0001567  89.1272 270.9899 15.08842683 84847,6917.872,95.437,540.821,538.653,0.0
53966.0,STARLINK-4635,PAYLOAD,2024-04-16 08:46:31,15.08844878,0.0001615,53.2178,92.155,86.6148,273.5029,4.2363e-05,3.86e-06,0.0,0 STARLINK-4635,1 53966U 22125C   24107.36564423  .00000386  00000-0  42363-4 0  9997,2 53966  53.2178  92.1550 0001615  86.6148 273.5029 15.08844878 84806,6917.865,95.437,540.848,538.613,0.0
53966.0,STARLINK-4635,PAYLOAD,2024-04-17 08:37:17,15.08856959,0.0001602,53.2169,87.6947,94.8171,265.3004,0.00025342,3.749e-05,0.0,0 STARLINK-4635,1 53966U 22125C   24108.35923583  .00003749  00000-0  25342-3 0  9996,2 53966  53.2169  87.6947 0001602  94.8171 265.3004 15.08856959 85028,6917.829,95.436,540.802,538.585,0.0
53966.0,STARLINK-4635,PAYLOAD,2024-04-18 03:41:57,15.08830478,0.0001394,53.2167,84.1269,114.0735,246.0403,-1.2748e-05,-4.91e-06,0.0,0 STARLINK-4635,1 53966U 22125C   24109.15413233 -.00000491  00000-0 -12748-4 0  9991,2 53966  53.2167  84.1269 0001394 114.0735 246.0403 15.08830478 85144,6917.909,95.438,540.739,538.81,0.0
53966.0,STARLINK-4635,PAYLOAD,2024-04-18 08:28:06,15.08828164,0.0001189,53.2167,83.2334,90.7576,269.3553,-9.287e-05,-1.765e-05,0.0,0 STARLINK-4635,1 53966U 22125C   24109.35285354 -.00001765  00000-0 -92870-4 0  9993,2 53966  53.2167  83.2334 0001189  90.7576 269.3553 15.08828164 85101,6917.917,95.438,540.604,538.959,0.0
53966.0,STARLINK-4635,PAYLOAD,2024-04-19 06:43:30,15.08843405,0.0001121,53.2169,79.0715,105.209,254.9027,0.00046564,7.131e-05,0.0,0 STARLINK-4635,1 53966U 22125C   24110.28021486  .00007131  00000-0  46564-3 0  9990,2 53966  53.2169  79.0715 0001121 105.2090 254.9027 15.08843405 85312,6917.87,95.437,540.51,538.959,0.0
53966.0,STARLINK-4635,PAYLOAD,2024-04-20 04:58:53,15.08873894,0.0001537,53.2176,74.9084,56.1061,304.0078,0.0010918,0.00017147,0.0,0 STARLINK-4635,1 53966U 22125C   24111.20756806  .00017147  00000-0  10918-2 0  9995,2 53966  53.2176  74.9084 0001537  56.1061 304.0078 15.08873894 85459,6917.777,95.435,540.705,538.579,0.0
53966.0,STARLINK-4635,PAYLOAD,2024-04-21 04:49:42,15.08808204,0.0001553,53.2169,70.4492,88.9613,271.1557,-0.00012564,-2.285e-05,0.0,0 STARLINK-4635,1 53966U 22125C   24112.20119174 -.00002285  00000-0 -12564-3 0  9996,2 53966  53.2169  70.4492 0001553  88.9613 271.1557 15.08808204 85605,6917.978,95.44,540.917,538.768,0.0
53966.0,STARLINK-4635,PAYLOAD,2024-04-21 06:25:06,15.0881247,0.0001553,53.2173,70.1506,85.6839,274.433,-0.00020255,-3.508e-05,0.0,0 STARLINK-4635,1 53966U 22125C   24112.26743286 -.00003508  00000-0 -20255-3 0  9994,2 53966  53.2173  70.1506 0001553  85.6839 274.4330 15.08812470 85545,6917.965,95.439,540.904,538.755,0.0
53966.0,STARLINK-4635,PAYLOAD,2024-04-21 20:43:34,15.08832945,0.0001786,53.2167,67.4795,67.7755,292.3426,0.00072569,0.00011278,0.0,0 STARLINK-4635,1 53966U 22125C   24112.86358936  .00011278  00000-0  72569-3 0  9990,2 53966  53.2167  67.4795 0001786  67.7755 292.3426 15.08832945 85705,6917.902,95.438,541.002,538.531,0.0
53966.0,STARLINK-4635,PAYLOAD,2024-04-22 06:15:52,15.08870436,0.0001719,53.2171,65.6885,111.805,248.3125,0.0018792,0.00029771,0.0,0 STARLINK-4635,1 53966U 22125C   24113.26102092  .00029771  00000-0  18792-2 0  9999,2 53966  53.2171  65.6885 0001719 111.8050 248.3125 15.08870436 85765,6917.787,95.436,540.842,538.463,0.0
53966.0,STARLINK-4635,PAYLOAD,2024-04-22 20:34:20,15.0884422,0.000168,53.2173,63.0147,108.9424,251.175,4.5496e-06,-2.16e-06,0.0,0 STARLINK-4635,1 53966U 22125C   24113.85718662 -.00000216  00000-0  45496-5 0  9998,2 53966  53.2173  63.0147 0001680 108.9424 251.1750 15.08844220 85857,6917.867,95.437,540.895,538.57,0.0
53966.0,STARLINK-4635,PAYLOAD,2024-04-23 02:55:51,15.08902614,0.0001555,53.2174,61.826,115.2272,244.8882,0.0014537,0.00022963,0.0,0 STARLINK-4635,1 53966U 22125C   24114.12212928  .00022963  00000-0  14537-2 0  9994,2 53966  53.2174  61.8260 0001555 115.2272 244.8882 15.08902614 85894,6917.689,95.434,540.63,538.478,0.0
53966.0,STARLINK-4635,PAYLOAD,2024-04-23 06:06:37,15.0891128,0.0001519,53.2175,61.2295,114.6071,245.5079,0.0014906,0.00023561,0.0,0 STARLINK-4635,1 53966U 22125C   24114.25460233  .00023561  00000-0  14906-2 0  9997,2 53966  53.2175  61.2295 0001519 114.6071 245.5079 15.08911280 85847,6917.663,95.433,540.578,538.477,0.0
53966.0,STARLINK-4635,PAYLOAD,2024-04-23 20:25:05,15.08852933,0.0001171,53.2172,58.5516,126.1833,233.9268,0.00023104,3.392e-05,0.0,0 STARLINK-4635,1 53966U 22125C   24114.85076004  .00003392  00000-0  23104-3 0  9993,2 53966  53.2172  58.5516 0001171 126.1833 233.9268 15.08852933 86006,6917.841,95.437,540.516,538.896,0.0
53966.0,STARLINK-4635,PAYLOAD,2024-04-24 02:46:37,15.08877561,0.0002295,53.2176,57.3649,114.1718,245.9514,0.0011263,0.00017701,0.0,0 STARLINK-4635,1 53966U 22125C   24115.11571360  .00017701  00000-0  11263-2 0  9999,2 53966  53.2176  57.3649 0002295 114.1718 245.9514 15.08877561 86046,6917.766,95.435,541.218,538.043,0.0
53966.0,STARLINK-4635,PAYLOAD,2024-04-24 05:57:24,15.08842355,0.0002067,53.2182,56.7692,102.4422,257.6801,0.00021764,3.177e-05,0.0,0 STARLINK-4635,1 53966U 22125C   24115.24819835  .00003177  00000-0  21764-3 0  9995,2 53966  53.2182  56.7692 0002067 102.4422 257.6801 15.08842355 86067,6917.873,95.437,541.168,538.308,0.0
53966.0,STARLINK-4635,PAYLOAD,2024-04-25 01:02:03,15.0880914,0.000262,53.2184,53.1924,130.9762,229.1457,-6.9275e-05,-1.39e-05,0.0,0 STARLINK-4635,1 53966U 22125C   24116.04309761 -.00001390  00000-0 -69275-4 0  9993,2 53966  53.2184  53.1924 0002620 130.9762 229.1457 15.08809140 86185,6917.975,95.44,541.652,538.027,0.0
53966.0,STARLINK-4635,PAYLOAD,2024-04-26 02:28:14,15.08863633,0.0001576,53.2188,48.4473,101.5607,258.5562,0.0019058,0.00030193,0.0,0 STARLINK-4635,1 53966U 22125C   24117.10294756  .00030193  00000-0  19058-2 0  9991,2 53966  53.2188  48.4473 0001576 101.5607 258.5562 15.08863633 86344,6917.808,95.436,540.763,538.583,0.0
53966.0,STARLINK-4635,PAYLOAD,2024-04-26 12:00:33,15.08856803,0.0001611,53.2183,46.6616,83.9749,276.1427,0.001559,0.00024622,0.0,0 STARLINK-4635,1 53966U 22125C   24117.50038729  .00024622  00000-0  15590-2 0  9998,2 53966  53.2183  46.6616 0001611  83.9749 276.1427 15.08856803 86402,6917.829,95.436,540.808,538.58,0.0
53966.0,STARLINK-4635,PAYLOAD,2024-04-27 02:19:01,15.08865407,9.67e-05,53.2185,43.9869,104.4566,255.6534,0.0024062,0.00038241,0.0,0 STARLINK-4635,1 53966U 22125C   24118.09654283  .00038241  00000-0  24062-2 0  9998,2 53966  53.2185  43.9869 0000967 104.4566 255.6534 15.08865407 86493,6917.803,95.436,540.337,538.999,0.0
53966.0,STARLINK-4635,PAYLOAD,2024-04-27 11:51:20,15.08862352,0.0001453,53.2175,42.1981,73.6492,286.466,0.0013308,0.00020968,0.0,0 STARLINK-4635,1 53966U 22125C   24118.49398264  .00020968  00000-0  13308-2 0  9994,2 53966  53.2175  42.1981 0001453  73.6492 286.4660 15.08862352 86559,6917.812,95.436,540.682,538.672,0.0
53966.0,STARLINK-4635,PAYLOAD,2024-04-28 03:45:12,15.08841054,0.0001049,53.2177,39.229,69.6658,290.4447,0.0018271,0.00028911,0.0,0 STARLINK-4635,1 53966U 22125C   24119.15638987  .00028911  00000-0  18271-2 0  9997,2 53966  53.2177  39.2290 0001049  69.6658 290.4447 15.08841054 86656,6917.877,95.437,540.468,539.016,0.0
53966.0,STARLINK-4635,PAYLOAD,2024-04-28 11:42:08,15.08836647,0.0001307,53.2187,37.7434,78.5523,281.5615,0.00085091,0.00013279,0.0,0 STARLINK-4635,1 53966U 22125C   24119.48759283  .00013279  00000-0  85091-3 0  9992,2 53966  53.2187  37.7434 0001307  78.5523 281.5615 15.08836647 86703,6917.891,95.438,540.66,538.851,0.0
53966.0,STARLINK-4635,PAYLOAD,2024-04-28 22:49:49,15.08851196,0.0001271,53.2188,35.6633,78.3404,281.7731,0.00096968,0.00015183,0.0,0 STARLINK-4635,1 53966U 22125C   24119.95127109  .00015183  00000-0  96968-3 0  9991,2 53966  53.2188  35.6633 0001271  78.3404 281.7731 15.08851196 86705,6917.846,95.437,540.59,538.832,0.0
53966.0,STARLINK-4635,PAYLOAD,2024-04-29 11:32:54,15.08848731,0.0001233,53.2175,33.2816,75.2593,284.8536,0.00054192,8.349e-05,0.0,0 STARLINK-4635,1 53966U 22125C   24120.48118871  .00008349  00000-0  54192-3 0  9996,2 53966  53.2175  33.2816 0001233  75.2593 284.8536 15.08848731 86855,6917.854,95.437,540.572,538.866,0.0
